LANDSAT 9               
1 49260U 21088A   23200.71171139  .00000543  00000+0  13058-3 0  9998
2 49260  98.2286 270.2114 0001225 101.7500 258.3836 14.57114290 96126
